{"results":1,"data":[{"wind":{"degrees":300,"speed_kts":3,"speed_mph":3,"speed_mps":2},"temperature":{"celsius":20,"fahrenheit":68},"dewpoint":{"celsius":15,"fahrenheit":59},"humidity":{"percent":73},"barometer":{"hg":30.18,"hpa":1022,"kpa":102.19,"mb":1021.92},"visibility":{"miles":"Greater than 6","miles_float":6.21,"meters":"10,000+","meters_float":10000},"elevation":{"feet":269.03,"meters":82},"location":{"coordinates":[-1.32,51.836899],"type":"Point"},"icao":"EGTK","observed":"2019-09-15T18:20:00.000Z","raw_text":"EGTK 151820Z 30003KT 9999 FEW030 20/15 Q1022","station":{"name":"Oxford (Kidlington)"},"clouds":[{"code":"FEW","text":"Few","base_feet_agl":3000,"base_meters_agl":914.4}],"flight_category":"VFR","conditions":[]}]}
